IRIDIUM 7               
1 24793U 97020B   24199.83415328  .00000994  00000+0  34027-3 0  9992
2 24793  86.3980 316.9967 0002298  98.4824 261.6633 14.35296742423928
IRIDIUM 5               
1 24795U 97020D   24199.67679544  .00005875  00000+0  55630-3 0  9994
2 24795  86.3906 237.1418 0118501 253.5677 105.2498 14.88199536435609
IRIDIUM 4               
1 24796U 97020E   24199.82124373  .00001063  00000+0  35791-3 0  9998
2 24796  86.3975 314.1005 0002082  97.3967 262.7467 14.36224461424462
IRIDIUM 914             
1 24836U 97030A   24199.83922881  .00001198  00000+0  37380-3 0  9990
2 24836  86.3960 323.6842 0001044 149.0894 211.0367 14.40092486558993
IRIDIUM 16              
1 24841U 97030F   24199.92965438  .00001177  00000+0  38294-3 0  9993
2 24841  86.4058 345.6993 0004255  87.5030 272.6655 14.37980342418951
IRIDIUM 911             
1 24842U 97030G   24200.15712467  .00001648  00000+0  45053-3 0  9998
2 24842  86.4482 344.7028 0015994 126.4962 233.7717 14.46643612426751
IRIDIUM 17              
1 24870U 97034B   24200.19668534  .00001125  00000+0  37268-3 0  9991
2 24870  86.3962  15.1648 0003204  62.8175 297.3349 14.37070940415608
IRIDIUM 920             
1 24871U 97034C   24199.91708879  .00001154  00000+0  35417-3 0  9992
2 24871  86.3992 355.2948 0013660 102.7817 257.4910 14.40789245418431
